{"type": "FeatureCollection", "features": [ {"type": "Feature", "properties": {"norad_id": 66546, "name": "SHIJIAN-30B", "group": "last-30-days", "lat": -51.56966647113034, "lon": -138.2467929432394, "alt_km": 526.010942074754, "timestamp": "2025-12-18T17:50:13.698812+00:00", "meta": {"OBJECT_NAME": "SHIJIAN-30B", "OBJECT_ID": "2025-266B", "EPOCH": "2025-12-18T07:08:08.592288", "MEAN_MOTION": 15.15556076, "ECCENTRICITY": 0.00107525, "INCLINATION": 51.798, "RA_OF_ASC_NODE": 306.8353, "ARG_OF_PERICENTER": 19.3585, "MEAN_ANOMALY": 340.7798, "EPHEMERIS_TYPE": 0, "CLASSIFICATION_TYPE": "U", "NORAD_CAT_ID": 66546, "ELEMENT_SET_NO": 999, "REV_AT_EPOCH": 442, "BSTAR": 0.00064570856, "MEAN_MOTION_DOT": 0.00012128, "MEAN_MOTION_DDOT": 0}, "tle": {"line1": "1 66546U 25266B   25352.29732167  .00012128  00000+0  64571-3 0  9991", "line2": "2 66546  51.7980 306.8353 0010752  19.3585 340.7798 15.15556076  4422"}}, "geometry": {"type": "Point", "coordinates": [-138.2467929432394, -51.56966647113034]}}, {"type": "Feature", "properties": {"norad_id": 66547, "name": "SHIJIAN-30C", "group": "last-30-days", "lat": -51.76981867713022, "lon": -143.72137826384557, "alt_km": 525.7128057232467, "timestamp": "2025-12-18T17:50:13.698823+00:00", "meta": {"OBJECT_NAME": "SHIJIAN-30C", "OBJECT_ID": "2025-266C", "EPOCH": "2025-12-18T07:09:00.619776", "MEAN_MOTION": 15.15496174, "ECCENTRICITY": 0.00116122, "INCLINATION": 51.799, "RA_OF_ASC_NODE": 306.8414, "ARG_OF_PERICENTER": 11.0989, "MEAN_ANOMALY": 349.0242, "EPHEMERIS_TYPE": 0, "CLASSIFICATION_TYPE": "U", "NORAD_CAT_ID": 66547, "ELEMENT_SET_NO": 999, "REV_AT_EPOCH": 442, "BSTAR": 0.00056583553, "MEAN_MOTION_DOT": 0.00010571, "MEAN_MOTION_DDOT": 0}, "tle": {"line1": "1 66547U 25266C   25352.29792384  .00010571  00000+0  56584-3 0  9994", "line2": "2 66547  51.7990 306.8414 0011612  11.0989 349.0242 15.15496174  4423"}}, "geometry": {"type": "Point", "coordinates": [-143.72137826384557, -51.76981867713022]}}, {"type": "Feature", "properties": {"norad_id": 66548, "name": "CZ-2C R/B", "group": "last-30-days", "lat": 11.054341054225038, "lon": -48.55780131581483, "alt_km": 531.4146426651942, "timestamp": "2025-12-18T17:50:13.698834+00:00", "meta": {"OBJECT_NAME": "CZ-2C R/B", "OBJECT_ID": "2025-266D", "EPOCH": "2025-12-18T06:48:12.971808", "MEAN_MOTION": 15.302969, "ECCENTRICITY": 0.00836165, "INCLINATION": 52.0555, "RA_OF_ASC_NODE": 304.8654, "ARG_OF_PERICENTER": 192.2011, "MEAN_ANOMALY": 167.6951, "EPHEMERIS_TYPE": 0, "CLASSIFICATION_TYPE": "U", "NORAD_CAT_ID": 66548, "ELEMENT_SET_NO": 999, "REV_AT_EPOCH": 446, "BSTAR": 0.0003317341, "MEAN_MOTION_DOT": 0.00010588, "MEAN_MOTION_DDOT": 0}, "tle": {"line1": "1 66548U 25266D   25352.28348347  .00010588  00000+0  33173-3 0  9997", "line2": "2 66548  52.0555 304.8654 0083616 192.2011 167.6951 15.30296900  4467"}}, "geometry": {"type": "Point", "coordinates": [-48.55780131581483, 11.054341054225038]}}, {"type": "Feature", "properties": {"norad_id": 66549, "name": "SHIJIAN-28", "group": "last-30-days", "lat": -1.4525991911496892, "lon": 111.91820553714763, "alt_km": 35784.88287119874, "timestamp": "2025-12-18T17:50:13.698848+00:00", "meta": {"OBJECT_NAME": "SHIJIAN-28", "OBJECT_ID": "2025-277A", "EPOCH": "2025-12-18T05:17:26.776320", "MEAN_MOTION": 1.00269462, "ECCENTRICITY": 0.00010169, "INCLINATION": 5.0051, "RA_OF_ASC_NODE": 274.8708, "ARG_OF_PERICENTER": 136.5503, "MEAN_ANOMALY": 231.8647, "EPHEMERIS_TYPE": 0, "CLASSIFICATION_TYPE": "U", "NORAD_CAT_ID": 66549, "ELEMENT_SET_NO": 999, "REV_AT_EPOCH": 34, "BSTAR": 0, "MEAN_MOTION_DOT": -3.3e-06, "MEAN_MOTION_DDOT": 0}, "tle": {"line1": "1 66549U 25277A   25352.22044880 -.00000330  00000+0  00000+0 0  9993", "line2": "2 66549   5.0051 274.8708 0001016 136.5503 231.8647  1.00269462   348"}}, "geometry": {"type": "Point", "coordinates": [111.91820553714763, -1.4525991911496892]}}, {"type": "Feature", "properties": {"norad_id": 66550, "name": "CZ-7A R/B", "group": "last-30-days", "lat": 3.675192737216302, "lon": -78.7920805654658, "alt_km": 28458.228804674556, "timestamp": "2025-12-18T17:50:13.698862+00:00", "meta": {"OBJECT_NAME": "CZ-7A R/B", "OBJECT_ID": "2025-277B", "EPOCH": "2025-12-12T23:59:46.063680", "MEAN_MOTION": 2.69999213, "ECCENTRICITY": 0.70164962, "INCLINATION": 14.3833, "RA_OF_ASC_NODE": 269.7494, "ARG_OF_PERICENTER": 189.2871, "MEAN_ANOMALY": 143.2042, "EPHEMERIS_TYPE": 0, "CLASSIFICATION_TYPE": "U", "NORAD_CAT_ID": 66550, "ELEMENT_SET_NO": 999, "REV_AT_EPOCH": 35, "BSTAR": 0.0022608485, "MEAN_MOTION_DOT": 0.01807848, "MEAN_MOTION_DDOT": -2.55676e-07}, "tle": {"line1": "1 66550U 25277B   25346.99983870  .01807848 -25568-6  22608-2 0  9997", "line2": "2 66550  14.3833 269.7494 7016496 189.2871 143.2042  2.69999213   350"}}, "geometry": {"type": "Point", "coordinates": [-78.7920805654658, 3.675192737216302]}}, {"type": "Feature", "properties": {"norad_id": 66554, "name": "GLOBAL-33", "group": "last-30-days", "lat": 41.6959069911373, "lon": 103.9504564292161, "alt_km": 462.193249820918, "timestamp": "2025-12-18T17:50:13.698882+00:00", "meta": {"OBJECT_NAME": "GLOBAL-33", "OBJECT_ID": "2025-267A", "EPOCH": "2025-12-18T04:57:13.101696", "MEAN_MOTION": 15.31667898, "ECCENTRICITY": 0.0003598, "INCLINATION": 42.0218, "RA_OF_ASC_NODE": 25.4335, "ARG_OF_PERICENTER": 120.4223, "MEAN_ANOMALY": 239.697, "EPHEMERIS_TYPE": 0, "CLASSIFICATION_TYPE": "U", "NORAD_CAT_ID": 66554, "ELEMENT_SET_NO": 999, "REV_AT_EPOCH": 424, "BSTAR": 0.00037991492, "MEAN_MOTION_DOT": 0.00011636, "MEAN_MOTION_DDOT": 0}, "tle": {"line1": "1 66554U 25267A   25352.20640164  .00011636  00000+0  37991-3 0  9996", "line2": "2 66554  42.0218  25.4335 0003598 120.4223 239.6970 15.31667898  4246"}}, "geometry": {"type": "Point", "coordinates": [103.9504564292161, 41.6959069911373]}}, {"type": "Feature", "properties": {"norad_id": 66555, "name": "ELECTRON KICK STAGE R/B", "group": "last-30-days", "lat": 1.3577941082951523, "lon": -159.403475310119, "alt_km": 464.9521131576794, "timestamp": "2025-12-18T17:50:13.698893+00:00", "meta": {"OBJECT_NAME": "ELECTRON KICK STAGE R/B", "OBJECT_ID": "2025-267B", "EPOCH": "2025-12-18T06:07:15.055968", "MEAN_MOTION": 15.33072736, "ECCENTRICITY": 0.00067564, "INCLINATION": 42.0196, "RA_OF_ASC_NODE": 24.9307, "ARG_OF_PERICENTER": 98.5116, "MEAN_ANOMALY": 261.6488, "EPHEMERIS_TYPE": 0, "CLASSIFICATION_TYPE": "U", "NORAD_CAT_ID": 66555, "ELEMENT_SET_NO": 999, "REV_AT_EPOCH": 425, "BSTAR": 0.00070622545, "MEAN_MOTION_DOT": 0.00022888, "MEAN_MOTION_DDOT": 0}, "tle": {"line1": "1 66555U 25267B   25352.25503537  .00022888  00000+0  70623-3 0  9994", "line2": "2 66555  42.0196  24.9307 0006756  98.5116 261.6488 15.33072736  4253"}}, "geometry": {"type": "Point", "coordinates": [-159.403475310119, 1.3577941082951523]}}, {"type": "Feature", "properties": {"norad_id": 66557, "name": "STARLINK-35699", "group": "last-30-days", "lat": 6.212889393452967, "lon": -100.61933598417711, "alt_km": 413.71575024257436, "timestamp": "2025-12-18T17:50:13.698904+00:00", "meta": {"OBJECT_NAME": "STARLINK-35699", "OBJECT_ID": "2025-268A", "EPOCH": "2025-12-18T06:16:58.643040", "MEAN_MOTION": 15.50604014, "ECCENTRICITY": 2.854e-05, "INCLINATION": 43.0006, "RA_OF_ASC_NODE": 88.9063, "ARG_OF_PERICENTER": 296.0515, "MEAN_ANOMALY": 64.0315, "EPHEMERIS_TYPE": 0, "CLASSIFICATION_TYPE": "U", "NORAD_CAT_ID": 66557, "ELEMENT_SET_NO": 999, "REV_AT_EPOCH": 548, "BSTAR": 0.0017607106, "MEAN_MOTION_DOT": 0.00104432, "MEAN_MOTION_DDOT": 0}, "tle": {"line1": "1 66557U 25268A   25352.26178985  .00104432  00000+0  17607-2 0  9991", "line2": "2 66557  43.0006  88.9063 0000285 296.0515  64.0315 15.50604014  5483"}}, "geometry": {"type": "Point", "coordinates": [-100.61933598417711, 6.212889393452967]}}, {"type": "Feature", "properties": {"norad_id": 66558, "name": "STARLINK-35695", "group": "last-30-days", "lat": 4.840310225492733, "lon": -99.130084106922, "alt_km": 414.2578470964336, "timestamp": "2025-12-18T17:50:13.698915+00:00", "meta": {"OBJECT_NAME": "STARLINK-35695", "OBJECT_ID": "2025-268B", "EPOCH": "2025-12-18T00:05:28.220640", "MEAN_MOTION": 15.50633257, "ECCENTRICITY": 0.00028075, "INCLINATION": 43.0005, "RA_OF_ASC_NODE": 90.4106, "ARG_OF_PERICENTER": 280.5511, "MEAN_ANOMALY": 79.5033, "EPHEMERIS_TYPE": 0, "CLASSIFICATION_TYPE": "U", "NORAD_CAT_ID": 66558, "ELEMENT_SET_NO": 999, "REV_AT_EPOCH": 544, "BSTAR": 0.0018156431, "MEAN_MOTION_DOT": 0.00107869, "MEAN_MOTION_DDOT": 0}, "tle": {"line1": "1 66558U 25268B   25352.00379885  .00107869  00000+0  18156-2 0  9993", "line2": "2 66558  43.0005  90.4106 0002807 280.5511  79.5033 15.50633257  5440"}}, "geometry": {"type": "Point", "coordinates": [-99.130084106922, 4.840310225492733]}}, {"type": "Feature", "properties": {"norad_id": 66559, "name": "STARLINK-35419", "group": "last-30-days", "lat": 3.589841192835721, "lon": -97.77908509298409, "alt_km": 414.2730374958046, "timestamp": "2025-12-18T17:50:13.698925+00:00", "meta": {"OBJECT_NAME": "STARLINK-35419", "OBJECT_ID": "2025-268C", "EPOCH": "2025-12-18T00:04:57.419040", "MEAN_MOTION": 15.50581937, "ECCENTRICITY": 0.00018951, "INCLINATION": 43.0022, "RA_OF_ASC_NODE": 90.4094, "ARG_OF_PERICENTER": 275.3774, "MEAN_ANOMALY": 84.687, "EPHEMERIS_TYPE": 0, "CLASSIFICATION_TYPE": "U", "NORAD_CAT_ID": 66559, "ELEMENT_SET_NO": 999, "REV_AT_EPOCH": 544, "BSTAR": 0.0015246885, "MEAN_MOTION_DOT": 0.00090152, "MEAN_MOTION_DDOT": 0}, "tle": {"line1": "1 66559U 25268C   25352.00344235  .00090152  00000+0  15247-2 0  9999", "line2": "2 66559  43.0022  90.4094 0001895 275.3774  84.6870 15.50581937  5448"}}, "geometry": {"type": "Point", "coordinates": [-97.77908509298409, 3.589841192835721]}}]}